IRIDIUM 126             
1 42809U 17039G   25239.91156139  .00000281  00000+0  93160-4 0  9992
2 42809  86.3955 116.2703 0001987  89.3198 270.8226 14.34217562427919
IRIDIUM 124             
1 42810U 17039H   25239.85227804  .00000123  00000+0  30664-4 0  9990
2 42810  86.4453  52.9805 0002346  92.1626 267.9843 14.43281121432800
IRIDIUM 128             
1 42811U 17039J   25239.83253197  .00000046  00000+0  91846-5 0  9997
2 42811  86.4025 147.7979 0002524  86.5505 273.5979 14.34218104427934
IRIDIUM 121             
1 42812U 17039K   25239.93058869  .00000120  00000+0  35927-4 0  9998
2 42812  86.3961 116.2890 0002249  84.6715 275.4738 14.34217712427794
IRIDIUM 133             
1 42955U 17061A   25239.79447572 -.00000015  00000+0 -12391-4 0  9993
2 42955  86.4027 147.9240 0002053  84.9581 275.1850 14.34217698412725
IRIDIUM 100             
1 42956U 17061B   25239.78813292  .00000237  00000+0  77695-4 0  9991
2 42956  86.4024 147.8524 0002177  88.7515 271.3931 14.34218544412722
IRIDIUM 122             
1 42957U 17061C   25239.82618806  .00000122  00000+0  36425-4 0  9990
2 42957  86.4023 147.8359 0002135  85.9848 274.1592 14.34218583412738
IRIDIUM 129             
1 42958U 17061D   25239.78178995  .00000061  00000+0  14586-4 0  9992
2 42958  86.4024 147.9182 0001918  73.8877 286.2530 14.34218047412743
